[{"OBJECT_NAME":"NAPA-1","OBJECT_ID":"2020-061BA","EPOCH":"2026-03-09T22:41:35.210688","MEAN_MOTION":15.57045946,"ECCENTRICITY":0.00010032,"INCLINATION":97.2581,"RA_OF_ASC_NODE":140.6709,"ARG_OF_PERICENTER":121.0916,"MEAN_ANOMALY":239.0438,"EPHEMERIS_TYPE":0,"CLASSIFICATION_TYPE":"U","NORAD_CAT_ID":46320,"ELEMENT_SET_NO":999,"REV_AT_EPOCH":30624,"BSTAR":0.00073314827,"MEAN_MOTION_DOT":0.00053161,"MEAN_MOTION_DDOT":0},{"OBJECT_NAME":"STARLINK-36601","OBJECT_ID":"2026-020B","EPOCH":"2026-03-09T22:00:01.999584","MEAN_MOTION":15.68236103,"ECCENTRICITY":0.00012387,"INCLINATION":42.9992,"RA_OF_ASC_NODE":140.3557,"ARG_OF_PERICENTER":284.2065,"MEAN_ANOMALY":191.4822,"EPHEMERIS_TYPE":0,"CLASSIFICATION_TYPE":"U","NORAD_CAT_ID":67618,"ELEMENT_SET_NO":999,"REV_AT_EPOCH":604,"BSTAR":-0.019358598,"MEAN_MOTION_DOT":-0.01967979,"MEAN_MOTION_DDOT":0}]
